ERS-1                   
1 21574U 91050A   26077.80325653  .00000250  00000+0  94452-4 0  9992
2 21574  98.7874  96.2668 0032131 173.3274 186.8347 14.39456052817044
ARIANE 40 R/B           
1 21610U 91050F   26077.55514440  .00000270  00000+0  93338-4 0  9993
2 21610  98.1993 129.4582 0004082  61.8985 298.2618 14.42900043820275
INTERCOSMOS 25          
1 21819U 91086A   26077.57318155  .00001643  00000+0  31465-3 0  9997
2 21819  82.6037 304.6392 1486821  97.7940 279.3933 12.12031562497764
SL-8 R/B                
1 21876U 92008B   26077.89432843  .00000005  00000+0 -10662-4 0  9990
2 21876  82.9223 260.9290 0035847 108.4127   3.0938 13.75969664710681
SL-8 R/B                
1 21938U 92020B   26077.72937723  .00000058  00000+0  45093-4 0  9995
2 21938  82.9322 147.0505 0027543 272.3652 235.3308 13.75550155702371
USA 81                  
1 21949U 92023A   26077.88001484  .00000166  00000+0  54195-4 0  9996
2 21949  85.0066 126.1385 0002202  70.9854 289.1577 14.32370891 96100
COSMOS 2219             
1 22219U 92076A   26077.78767708 -.00000119  00000+0 -37765-4 0  9996
2 22219  71.0640 359.0509 0018447 194.3345 165.7257 14.14093415719664
SL-16 R/B               
1 22220U 92076B   26077.68255423  .00000239  00000+0  14277-3 0  9996
2 22220  71.0006 169.4320 0010600  79.7411  82.4192 14.16860316723100
COSMOS 2221             
1 22236U 92080A   26077.53200737  .00001839  00000+0  16044-3 0  9991
2 22236  82.5002 270.6088 0014796 157.8736 202.3128 14.96236025782114
SL-16 R/B               
1 22285U 92093B   26077.43193505  .00000173  00000+0  11279-3 0  9997
2 22285  71.0239 345.9154 0006282 284.8808  75.1619 14.15447849714390
COSMOS 2228             
1 22286U 92094A   26077.87663607  .00002213  00000+0  18854-3 0  9995
2 22286  82.5169 228.5133 0016606 271.2194  88.7126 14.97236704777435
SL-16 R/B               
1 22566U 93016B   26077.75591076 -.00000253  00000+0 -10519-3 0  9992
2 22566  71.0082 196.1403 0012288 302.3330  57.6602 14.15307929703456
