CCSDS_OMM_VERS = 2.0
CREATION_DATE  = 
ORIGINATOR     = 

OBJECT_NAME    = ERS-1
OBJECT_ID      = 1991-050A
CENTER_NAME    = EARTH
REF_FRAME      = TEME
TIME_SYSTEM    = UTC
MEAN_ELEMENT_THEORY = SGP/SGP4

EPOCH          = 2026-03-18T19:16:41.364192
MEAN_MOTION    = 14.39456052
ECCENTRICITY   = .0032131
INCLINATION    = 98.7874
RA_OF_ASC_NODE = 96.2668
ARG_OF_PERICENTER = 173.3274
MEAN_ANOMALY   = 186.8347

EPHEMERIS_TYPE = 0
CLASSIFICATION_TYPE = U
NORAD_CAT_ID   = 21574
ELEMENT_SET_NO = 999
REV_AT_EPOCH   = 81704
BSTAR          = .94452E-4
MEAN_MOTION_DOT = .25E-5
MEAN_MOTION_DDOT = 0

CCSDS_OMM_VERS = 2.0
CREATION_DATE  = 
ORIGINATOR     = 

OBJECT_NAME    = ARIANE 40 R/B
OBJECT_ID      = 1991-050F
CENTER_NAME    = EARTH
REF_FRAME      = TEME
TIME_SYSTEM    = UTC
MEAN_ELEMENT_THEORY = SGP/SGP4

EPOCH          = 2026-03-18T13:19:24.476160
MEAN_MOTION    = 14.42900043
ECCENTRICITY   = .0004082
INCLINATION    = 98.1993
RA_OF_ASC_NODE = 129.4582
ARG_OF_PERICENTER = 61.8985
MEAN_ANOMALY   = 298.2618

EPHEMERIS_TYPE = 0
CLASSIFICATION_TYPE = U
NORAD_CAT_ID   = 21610
ELEMENT_SET_NO = 999
REV_AT_EPOCH   = 82027
BSTAR          = .93338E-4
MEAN_MOTION_DOT = .27E-5
MEAN_MOTION_DDOT = 0

CCSDS_OMM_VERS = 2.0
CREATION_DATE  = 
ORIGINATOR     = 

OBJECT_NAME    = INTERCOSMOS 25
OBJECT_ID      = 1991-086A
CENTER_NAME    = EARTH
REF_FRAME      = TEME
TIME_SYSTEM    = UTC
MEAN_ELEMENT_THEORY = SGP/SGP4

EPOCH          = 2026-03-18T13:45:22.885920
MEAN_MOTION    = 12.12031562
ECCENTRICITY   = .14868213
INCLINATION    = 82.6037
RA_OF_ASC_NODE = 304.6392
ARG_OF_PERICENTER = 97.7940
MEAN_ANOMALY   = 279.3933

EPHEMERIS_TYPE = 0
CLASSIFICATION_TYPE = U
NORAD_CAT_ID   = 21819
ELEMENT_SET_NO = 999
REV_AT_EPOCH   = 49776
BSTAR          = .31464693E-3
MEAN_MOTION_DOT = .1643E-4
MEAN_MOTION_DDOT = 0

CCSDS_OMM_VERS = 2.0
CREATION_DATE  = 
ORIGINATOR     = 

OBJECT_NAME    = SL-8 R/B
OBJECT_ID      = 1992-008B
CENTER_NAME    = EARTH
REF_FRAME      = TEME
TIME_SYSTEM    = UTC
MEAN_ELEMENT_THEORY = SGP/SGP4

EPOCH          = 2026-03-18T21:27:49.976352
MEAN_MOTION    = 13.75969664
ECCENTRICITY   = .0035847
INCLINATION    = 82.9223
RA_OF_ASC_NODE = 260.9290
ARG_OF_PERICENTER = 108.4127
MEAN_ANOMALY   = 3.0938

EPHEMERIS_TYPE = 0
CLASSIFICATION_TYPE = U
NORAD_CAT_ID   = 21876
ELEMENT_SET_NO = 999
REV_AT_EPOCH   = 71068
BSTAR          = -.10662E-4
MEAN_MOTION_DOT = .5E-7
MEAN_MOTION_DDOT = 0

CCSDS_OMM_VERS = 2.0
CREATION_DATE  = 
ORIGINATOR     = 

OBJECT_NAME    = SL-8 R/B
OBJECT_ID      = 1992-020B
CENTER_NAME    = EARTH
REF_FRAME      = TEME
TIME_SYSTEM    = UTC
MEAN_ELEMENT_THEORY = SGP/SGP4

EPOCH          = 2026-03-18T17:30:18.192672
MEAN_MOTION    = 13.75550155
ECCENTRICITY   = .0027543
INCLINATION    = 82.9322
RA_OF_ASC_NODE = 147.0505
ARG_OF_PERICENTER = 272.3652
MEAN_ANOMALY   = 235.3308

EPHEMERIS_TYPE = 0
CLASSIFICATION_TYPE = U
NORAD_CAT_ID   = 21938
ELEMENT_SET_NO = 999
REV_AT_EPOCH   = 70237
BSTAR          = .45093E-4
MEAN_MOTION_DOT = .58E-6
MEAN_MOTION_DDOT = 0

CCSDS_OMM_VERS = 2.0
CREATION_DATE  = 
ORIGINATOR     = 

OBJECT_NAME    = USA 81
OBJECT_ID      = 1992-023A
CENTER_NAME    = EARTH
REF_FRAME      = TEME
TIME_SYSTEM    = UTC
MEAN_ELEMENT_THEORY = SGP/SGP4

EPOCH          = 2026-03-18T21:07:13.282176
MEAN_MOTION    = 14.32370891
ECCENTRICITY   = .0002202
INCLINATION    = 85.0066
RA_OF_ASC_NODE = 126.1385
ARG_OF_PERICENTER = 70.9854
MEAN_ANOMALY   = 289.1577

EPHEMERIS_TYPE = 0
CLASSIFICATION_TYPE = U
NORAD_CAT_ID   = 21949
ELEMENT_SET_NO = 999
REV_AT_EPOCH   = 9610
BSTAR          = .54195E-4
MEAN_MOTION_DOT = .166E-5
MEAN_MOTION_DDOT = 0

CCSDS_OMM_VERS = 2.0
CREATION_DATE  = 
ORIGINATOR     = 

OBJECT_NAME    = COSMOS 2219
OBJECT_ID      = 1992-076A
CENTER_NAME    = EARTH
REF_FRAME      = TEME
TIME_SYSTEM    = UTC
MEAN_ELEMENT_THEORY = SGP/SGP4

EPOCH          = 2026-03-18T18:54:15.299712
MEAN_MOTION    = 14.14093415
ECCENTRICITY   = .0018447
INCLINATION    = 71.0640
RA_OF_ASC_NODE = 359.0509
ARG_OF_PERICENTER = 194.3345
MEAN_ANOMALY   = 165.7257

EPHEMERIS_TYPE = 0
CLASSIFICATION_TYPE = U
NORAD_CAT_ID   = 22219
ELEMENT_SET_NO = 999
REV_AT_EPOCH   = 71966
BSTAR          = -.37765E-4
MEAN_MOTION_DOT = -.119E-5
MEAN_MOTION_DDOT = 0

CCSDS_OMM_VERS = 2.0
CREATION_DATE  = 
ORIGINATOR     = 

OBJECT_NAME    = SL-16 R/B
OBJECT_ID      = 1992-076B
CENTER_NAME    = EARTH
REF_FRAME      = TEME
TIME_SYSTEM    = UTC
MEAN_ELEMENT_THEORY = SGP/SGP4

EPOCH          = 2026-03-18T16:22:52.685472
MEAN_MOTION    = 14.16860316
ECCENTRICITY   = .00106
INCLINATION    = 71.0006
RA_OF_ASC_NODE = 169.4320
ARG_OF_PERICENTER = 79.7411
MEAN_ANOMALY   = 82.4192

EPHEMERIS_TYPE = 0
CLASSIFICATION_TYPE = U
NORAD_CAT_ID   = 22220
ELEMENT_SET_NO = 999
REV_AT_EPOCH   = 72310
BSTAR          = .14277E-3
MEAN_MOTION_DOT = .239E-5
MEAN_MOTION_DDOT = 0

CCSDS_OMM_VERS = 2.0
CREATION_DATE  = 
ORIGINATOR     = 

OBJECT_NAME    = COSMOS 2221
OBJECT_ID      = 1992-080A
CENTER_NAME    = EARTH
REF_FRAME      = TEME
TIME_SYSTEM    = UTC
MEAN_ELEMENT_THEORY = SGP/SGP4

EPOCH          = 2026-03-18T12:46:05.436768
MEAN_MOTION    = 14.96236025
ECCENTRICITY   = .00147961
INCLINATION    = 82.5002
RA_OF_ASC_NODE = 270.6088
ARG_OF_PERICENTER = 157.8736
MEAN_ANOMALY   = 202.3128

EPHEMERIS_TYPE = 0
CLASSIFICATION_TYPE = U
NORAD_CAT_ID   = 22236
ELEMENT_SET_NO = 999
REV_AT_EPOCH   = 78211
BSTAR          = .16043819E-3
MEAN_MOTION_DOT = .1839E-4
MEAN_MOTION_DDOT = 0

CCSDS_OMM_VERS = 2.0
CREATION_DATE  = 
ORIGINATOR     = 

OBJECT_NAME    = SL-16 R/B
OBJECT_ID      = 1992-093B
CENTER_NAME    = EARTH
REF_FRAME      = TEME
TIME_SYSTEM    = UTC
MEAN_ELEMENT_THEORY = SGP/SGP4

EPOCH          = 2026-03-18T10:21:59.188320
MEAN_MOTION    = 14.15447849
ECCENTRICITY   = .00062824
INCLINATION    = 71.0239
RA_OF_ASC_NODE = 345.9154
ARG_OF_PERICENTER = 284.8808
MEAN_ANOMALY   = 75.1619

EPHEMERIS_TYPE = 0
CLASSIFICATION_TYPE = U
NORAD_CAT_ID   = 22285
ELEMENT_SET_NO = 999
REV_AT_EPOCH   = 71439
BSTAR          = .11279175E-3
MEAN_MOTION_DOT = .173E-5
MEAN_MOTION_DDOT = 0

CCSDS_OMM_VERS = 2.0
CREATION_DATE  = 
ORIGINATOR     = 

OBJECT_NAME    = COSMOS 2228
OBJECT_ID      = 1992-094A
CENTER_NAME    = EARTH
REF_FRAME      = TEME
TIME_SYSTEM    = UTC
MEAN_ELEMENT_THEORY = SGP/SGP4

EPOCH          = 2026-03-18T21:02:21.356448
MEAN_MOTION    = 14.97236704
ECCENTRICITY   = .0016606
INCLINATION    = 82.5169
RA_OF_ASC_NODE = 228.5133
ARG_OF_PERICENTER = 271.2194
MEAN_ANOMALY   = 88.7126

EPHEMERIS_TYPE = 0
CLASSIFICATION_TYPE = U
NORAD_CAT_ID   = 22286
ELEMENT_SET_NO = 999
REV_AT_EPOCH   = 77743
BSTAR          = .18854E-3
MEAN_MOTION_DOT = .2213E-4
MEAN_MOTION_DDOT = 0

CCSDS_OMM_VERS = 2.0
CREATION_DATE  = 
ORIGINATOR     = 

OBJECT_NAME    = SL-16 R/B
OBJECT_ID      = 1993-016B
CENTER_NAME    = EARTH
REF_FRAME      = TEME
TIME_SYSTEM    = UTC
MEAN_ELEMENT_THEORY = SGP/SGP4

EPOCH          = 2026-03-18T18:08:30.689664
MEAN_MOTION    = 14.15307929
ECCENTRICITY   = .0012288
INCLINATION    = 71.0082
RA_OF_ASC_NODE = 196.1403
ARG_OF_PERICENTER = 302.3330
MEAN_ANOMALY   = 57.6602

EPHEMERIS_TYPE = 0
CLASSIFICATION_TYPE = U
NORAD_CAT_ID   = 22566
ELEMENT_SET_NO = 999
REV_AT_EPOCH   = 70345
BSTAR          = -.10519E-3
MEAN_MOTION_DOT = -.253E-5
MEAN_MOTION_DDOT = 0

